{
  "type": "FeatureCollection",
  "features": [
    {
      "type": "Feature",
      "properties": {
        "norad_id": 66603,
        "name": "STARLINK-36048",
        "group": "last-30-days",
        "lat": 34.80765645410243,
        "lon": -146.49437354640986,
        "alt_km": 439.05988188896936,
        "timestamp": "2025-12-17T10:52:53.099835+00:00",
        "meta_object_name": "STARLINK-36048",
        "meta_object_id": "2025-270R",
        "meta_epoch": "2025-12-16T22:00:03.000096",
        "meta_mean_motion": 15.40633926,
        "meta_eccentricity": 0.00012761,
        "meta_inclination": 42.9989,
        "meta_ra_of_asc_node": 168.3466,
        "meta_arg_of_pericenter": 275.7722,
        "meta_mean_anomaly": 40.8541,
        "meta_ephemeris_type": 0,
        "meta_classification_type": "U",
        "meta_norad_cat_id": 66603,
        "meta_element_set_no": 999,
        "meta_rev_at_epoch": 497,
        "meta_bstar": 0.0020627827,
        "meta_mean_motion_dot": 0.00086658,
        "meta_mean_motion_ddot": 0,
        "tle_line1": "1 66603U 25270R   25350.91670139  .00086658  00000+0  20628-2 0  9990",
        "tle_line2": "2 66603  42.9989 168.3466 0001276 275.7722  40.8541 15.40633926  4977"
      },
      "geometry": {
        "type": "Point",
        "coordinates": [
          -146.49437354640986,
          34.80765645410243
        ]
      }
    },
    {
      "type": "Feature",
      "properties": {
        "norad_id": 66604,
        "name": "STARLINK-35977",
        "group": "last-30-days",
        "lat": 35.10981023364241,
        "lon": -63.8954299677037,
        "alt_km": 409.7055687007032,
        "timestamp": "2025-12-17T10:52:53.099845+00:00",
        "meta_object_name": "STARLINK-35977",
        "meta_object_id": "2025-270S",
        "meta_epoch": "2025-12-15T05:47:51.952128",
        "meta_mean_motion": 15.50594552,
        "meta_eccentricity": 0.00014478,
        "meta_inclination": 42.9989,
        "meta_ra_of_asc_node": 178.0309,
        "meta_arg_of_pericenter": 284.8784,
        "meta_mean_anomaly": 75.1916,
        "meta_ephemeris_type": 0,
        "meta_classification_type": "U",
        "meta_norad_cat_id": 66604,
        "meta_element_set_no": 999,
        "meta_rev_at_epoch": 473,
        "meta_bstar": 0.00084362823,
        "meta_mean_motion_dot": 0.00049491,
        "meta_mean_motion_ddot": 0,
        "tle_line1": "1 66604U 25270S   25349.24157352  .00049491  00000+0  84363-3 0  9993",
        "tle_line2": "2 66604  42.9989 178.0309 0001447 284.8784  75.1916 15.50594552  4734"
      },
      "geometry": {
        "type": "Point",
        "coordinates": [
          -63.8954299677037,
          35.10981023364241
        ]
      }
    },
    {
      "type": "Feature",
      "properties": {
        "norad_id": 66605,
        "name": "STARLINK-36052",
        "group": "last-30-days",
        "lat": 34.613976725989694,
        "lon": -62.69880118345758,
        "alt_km": 410.5077342521863,
        "timestamp": "2025-12-17T10:52:53.099855+00:00",
        "meta_object_name": "STARLINK-36052",
        "meta_object_id": "2025-270T",
        "meta_epoch": "2025-12-16T21:59:02.986656",
        "meta_mean_motion": 15.50607188,
        "meta_eccentricity": 0.00023224,
        "meta_inclination": 43.0013,
        "meta_ra_of_asc_node": 168.2332,
        "meta_arg_of_pericenter": 270.6727,
        "meta_mean_anomaly": 89.3867,
        "meta_ephemeris_type": 0,
        "meta_classification_type": "U",
        "meta_norad_cat_id": 66605,
        "meta_element_set_no": 999,
        "meta_rev_at_epoch": 499,
        "meta_bstar": 0.0015957771,
        "meta_mean_motion_dot": 0.00094511,
        "meta_mean_motion_ddot": 0,
        "tle_line1": "1 66605U 25270T   25350.91600679  .00094511  00000+0  15958-2 0  9991",
        "tle_line2": "2 66605  43.0013 168.2332 0002322 270.6727  89.3867 15.50607188  4995"
      },
      "geometry": {
        "type": "Point",
        "coordinates": [
          -62.69880118345758,
          34.613976725989694
        ]
      }
    },
    {
      "type": "Feature",
      "properties": {
        "norad_id": 66606,
        "name": "STARLINK-36063",
        "group": "last-30-days",
        "lat": 32.837762658340814,
        "lon": -58.760084920276306,
        "alt_km": 410.41345500918305,
        "timestamp": "2025-12-17T10:52:53.099866+00:00",
        "meta_object_name": "STARLINK-36063",
        "meta_object_id": "2025-270U",
        "meta_epoch": "2025-12-16T21:58:04.249344",
        "meta_mean_motion": 15.50584205,
        "meta_eccentricity": 0.00015744,
        "meta_inclination": 42.9985,
        "meta_ra_of_asc_node": 168.2266,
        "meta_arg_of_pericenter": 263.3817,
        "meta_mean_anomaly": 96.6864,
        "meta_ephemeris_type": 0,
        "meta_classification_type": "U",
        "meta_norad_cat_id": 66606,
        "meta_element_set_no": 999,
        "meta_rev_at_epoch": 499,
        "meta_bstar": 0.0010034596,
        "meta_mean_motion_dot": 0.00058983,
        "meta_mean_motion_ddot": 0,
        "tle_line1": "1 66606U 25270U   25350.91532696  .00058983  00000+0  10035-2 0  9999",
        "tle_line2": "2 66606  42.9985 168.2266 0001574 263.3817  96.6864 15.50584205  4997"
      },
      "geometry": {
        "type": "Point",
        "coordinates": [
          -58.760084920276306,
          32.837762658340814
        ]
      }
    },
    {
      "type": "Feature",
      "properties": {
        "norad_id": 66607,
        "name": "STARLINK-35993",
        "group": "last-30-days",
        "lat": 33.741326772931004,
        "lon": -60.711884890896705,
        "alt_km": 410.1806198459926,
        "timestamp": "2025-12-17T10:52:53.099878+00:00",
        "meta_object_name": "STARLINK-35993",
        "meta_object_id": "2025-270V",
        "meta_epoch": "2025-12-16T21:58:33.930336",
        "meta_mean_motion": 15.5059483,
        "meta_eccentricity": 0.00016342,
        "meta_inclination": 42.9983,
        "meta_ra_of_asc_node": 168.2299,
        "meta_arg_of_pericenter": 262.7641,
        "meta_mean_anomaly": 97.3033,
        "meta_ephemeris_type": 0,
        "meta_classification_type": "U",
        "meta_norad_cat_id": 66607,
        "meta_element_set_no": 999,
        "meta_rev_at_epoch": 489,
        "meta_bstar": 0.0015509029,
        "meta_mean_motion_dot": 0.00091768,
        "meta_mean_motion_ddot": 0,
        "tle_line1": "1 66607U 25270V   25350.91567049  .00091768  00000+0  15509-2 0  9999",
        "tle_line2": "2 66607  42.9983 168.2299 0001634 262.7641  97.3033 15.50594830  4897"
      },
      "geometry": {
        "type": "Point",
        "coordinates": [
          -60.711884890896705,
          33.741326772931004
        ]
      }
    },
    {
      "type": "Feature",
      "properties": {
        "norad_id": 66608,
        "name": "STARLINK-36036",
        "group": "last-30-days",
        "lat": 31.85751813609558,
        "lon": -56.75390881770687,
        "alt_km": 410.5448238597546,
        "timestamp": "2025-12-17T10:52:53.099890+00:00",
        "meta_object_name": "STARLINK-36036",
        "meta_object_id": "2025-270W",
        "meta_epoch": "2025-12-16T20:24:49.223808",
        "meta_mean_motion": 15.50585639,
        "meta_eccentricity": 0.00016175,
        "meta_inclination": 42.9991,
        "meta_ra_of_asc_node": 168.6005,
        "meta_arg_of_pericenter": 269.0527,
        "meta_mean_anomaly": 91.0148,
        "meta_ephemeris_type": 0,
        "meta_classification_type": "U",
        "meta_norad_cat_id": 66608,
        "meta_element_set_no": 999,
        "meta_rev_at_epoch": 482,
        "meta_bstar": 0.0013351375,
        "meta_mean_motion_dot": 0.00078796,
        "meta_mean_motion_ddot": 0,
        "tle_line1": "1 66608U 25270W   25350.85056972  .00078796  00000+0  13351-2 0  9990",
        "tle_line2": "2 66608  42.9991 168.6005 0001617 269.0527  91.0148 15.50585639  4828"
      },
      "geometry": {
        "type": "Point",
        "coordinates": [
          -56.75390881770687,
          31.85751813609558
        ]
      }
    },
    {
      "type": "Feature",
      "properties": {
        "norad_id": 66609,
        "name": "STARLINK-36034",
        "group": "last-30-days",
        "lat": 30.868639985719245,
        "lon": -54.83322983752588,
        "alt_km": 411.0673470702168,
        "timestamp": "2025-12-17T10:52:53.099903+00:00",
        "meta_object_name": "STARLINK-36034",
        "meta_object_id": "2025-270X",
        "meta_epoch": "2025-12-16T20:24:19.698336",
        "meta_mean_motion": 15.50583338,
        "meta_eccentricity": 0.00018969,
        "meta_inclination": 42.9988,
        "meta_ra_of_asc_node": 168.5989,
        "meta_arg_of_pericenter": 295.3896,
        "meta_mean_anomaly": 64.6767,
        "meta_ephemeris_type": 0,
        "meta_classification_type": "U",
        "meta_norad_cat_id": 66609,
        "meta_element_set_no": 999,
        "meta_rev_at_epoch": 482,
        "meta_bstar": 0.001403954,
        "meta_mean_motion_dot": 0.00082913,
        "meta_mean_motion_ddot": 0,
        "tle_line1": "1 66609U 25270X   25350.85022799  .00082913  00000+0  14040-2 0  9993",
        "tle_line2": "2 66609  42.9988 168.5989 0001896 295.3896  64.6767 15.50583338  4822"
      },
      "geometry": {
        "type": "Point",
        "coordinates": [
          -54.83322983752588,
          30.868639985719245
        ]
      }
    }
  ]
}